STARLINK-31238          
1 58853U 24019A   26068.48494196 -.00000141  00000+0  44063-5 0  9990
2 58853  43.0033 249.8573 0001476 277.3704  82.6980 15.27575974119051
KUIPER-00209            
1 67776U 26030N   26068.61786546  .00035298  00000+0  11963-2 0  9997
2 67776  51.8838 220.0775 0012191  59.1967 301.0215 15.30161950  5077
